EPOCH,NORAD_CAT_ID,MEAN_MOTION,ECCENTRICITY,INCLINATION,RA_OF_ASC_NODE,ARG_OF_PERICENTER,MEAN_ANOMALY,MEAN_MOTION_DOT,BSTAR,TLE_LINE1,TLE_LINE2
2024-12-01 00:46:14,50803,15.22059944,0.0001364,53.2169,89.771,87.6412,272.4742,0.00013399,0.00059159,1 50803U 22001A   24336.03210713  .00013399  00000-0  59159-3 0  9993,2 50803  53.2169  89.7710 0001364  87.6412 272.4742 15.22059944160420
2024-12-01 18:06:23,50803,15.22023599,0.0000912,53.2139,86.4661,108.0692,252.0406,-0.00003537,-0.00013871,1 50803U 22001A   24336.75443406 -.00003537  00000-0 -13871-3 0  9995,2 50803  53.2139  86.4661 0000912 108.0692 252.0406 15.22023599161803
2024-12-01 18:06:23,50803,15.22023599,0.0000912,53.2139,86.4661,108.0692,252.0406,-0.00003537,-0.00013871,1 50803U 22001A   24336.75443406 -.00003537  00000-0 -13871-3 0  9995,2 50803  53.2139  86.4661 0000912 108.0692 252.0406 15.22023599160532
2024-12-02 08:17:25,50803,15.22009285,0.0001386,53.2144,83.7579,101.6467,258.4686,0.00002831,0.00013657,1 50803U 22001A   24337.34543699  .00002831  00000-0  13657-3 0  9992,2 50803  53.2144  83.7579 0001386 101.6467 258.4686 15.22009285161897
2024-12-02 08:17:25,50803,15.22009285,0.0001386,53.2144,83.7579,101.6467,258.4686,0.00002831,0.00013657,1 50803U 22001A   24337.34543699  .00002831  00000-0  13657-3 0  9992,2 50803  53.2144  83.7579 0001386 101.6467 258.4686 15.22009285160627
2024-12-02 19:19:20,50803,15.2200987,0.0001365,53.2128,81.6527,102.1649,257.9502,0.00002099,0.00010493,1 50803U 22001A   24337.80510207  .00002099  00000-0  10493-3 0  9993,2 50803  53.2128  81.6527 0001365 102.1649 257.9502 15.22009870160692
2024-12-03 11:04:56,50803,15.22013124,0.0001355,53.2136,78.6439,101.6397,258.4753,0.00002033,0.00010208,1 50803U 22001A   24338.46176487  .00002033  00000-0  10208-3 0  9996,2 50803  53.2136  78.6439 0001355 101.6397 258.4753 15.22013124162066
2024-12-03 14:14:03,50803,15.22015346,0.0001412,53.2138,78.0422,97.9828,262.1331,0.00003107,0.00014846,1 50803U 22001A   24338.59309702  .00003107  00000-0  14846-3 0  9993,2 50803  53.2138  78.0422 0001412  97.9828 262.1331 15.22015346160817
2024-12-03 15:48:37,50803,15.22016467,0.0001422,53.2138,77.7414,97.5483,262.5676,0.00003358,0.00015932,1 50803U 22001A   24338.65876295  .00003358  00000-0  15932-3 0  9991,2 50803  53.2138  77.7414 0001422  97.5483 262.5676 15.22016467160820
2024-12-04 12:17:53,50803,15.22017652,0.0001475,53.2143,73.8297,92.6014,267.5153,0.00001685,0.000087045,1 50803U 22001A   24339.51242205  .00001685  00000-0  87045-4 0  9991,2 50803  53.2143  73.8297 0001475  92.6014 267.5153 15.22017652162224
2024-12-04 13:52:26,50803,15.2201682,0.0001511,53.2146,73.5288,90.5592,269.5579,0.00001439,0.000076433,1 50803U 22001A   24339.57808863  .00001439  00000-0  76433-4 0  9991,2 50803  53.2146  73.5288 0001511  90.5592 269.5579 15.22016820160962
2024-12-05 13:30:49,50803,15.22021041,0.0001385,53.2139,69.0164,90.9978,269.1179,0.00000489,0.000035353,1 50803U 22001A   24340.56307581  .00000489  00000-0  35353-4 0  9993,2 50803  53.2139  69.0164 0001385  90.9978 269.1179 15.22021041161119
2024-12-05 13:30:49,50803,15.22021041,0.0001385,53.2139,69.0164,90.9978,269.1179,0.00000489,0.000035353,1 50803U 22001A   24340.56307581  .00000489  00000-0  35353-4 0  9993,2 50803  53.2139  69.0164 0001385  90.9978 269.1179 15.22021041162389
2024-12-06 11:33:55,50803,15.22802421,0.0002991,53.2137,64.8016,149.0564,211.0611,0.00167766,0.0069384,1 50803U 22001A   24341.48189634  .00167766  00000-0  69384-2 0  9993,2 50803  53.2137  64.8016 0002991 149.0564 211.0611 15.22802421162529
2024-12-06 14:42:49,50803,15.22986217,0.0000806,53.2136,64.199,70.088,290.0205,0.00202313,0.0082798,1 50803U 22001A   24341.61306986  .00202313  00000-0  82798-2 0  9991,2 50803  53.2136  64.1990 0000806  70.0880 290.0205 15.22986217161272
2024-12-06 16:17:15,50803,15.23042946,0.0001135,53.2146,63.8959,17.0741,343.0296,0.00207461,0.00847,1 50803U 22001A   24341.67865396  .00207461  00000-0  84700-2 0  9996,2 50803  53.2146  63.8959 0001135  17.0741 343.0296 15.23042946162551
2024-12-06 16:17:15,50803,15.23042946,0.0001135,53.2146,63.8959,17.0741,343.0296,0.00207461,0.00847,1 50803U 22001A   24341.67865396  .00207461  00000-0  84700-2 0  9996,2 50803  53.2146  63.8959 0001135  17.0741 343.0296 15.23042946161280
2024-12-07 04:00:01,50803,15.24617406,0.000101,53.2125,61.6569,93.8125,64.666,0.00975423,0.035966,1 50803U 22001A   24342.16668981  .00975423  00000-0  35966-1 0  9991,2 50803  53.2125  61.6569 0001010  93.8125  64.6660 15.24617406162620
2024-12-07 14:00:01,50803,15.25360668,0.0001252,53.2124,59.7412,76.3067,210.9339,0.00963262,0.034777,1 50803U 22001A   24342.58335648  .00963262  00000-0  34777-1 0  9995,2 50803  53.2124  59.7412 0001252  76.3067 210.9339 15.25360668  5837
2024-12-07 20:00:01,50803,15.25832196,0.0001067,53.212,58.5888,77.5604,143.4619,0.00910475,0.032557,1 50803U 22001A   24342.83335648  .00910475  00000-0  32557-1 0  9995,2 50803  53.2120  58.5888 0001067  77.5604 143.4619 15.25832196162724
2024-12-07 22:00:01,50803,15.25976622,0.0001189,53.2121,58.2042,82.7684,236.2762,0.00914106,0.032536,1 50803U 22001A   24342.91668981  .00914106  00000-0  32536-1 0  9995,2 50803  53.2121  58.2042 0001189  82.7684 236.2762 15.25976622  5791
2024-12-08 12:00:00,50803,15.27005349,0.0001154,53.2119,55.5144,77.1886,209.1855,0.00932811,0.032139,1 50803U 22001A   24343.50001157  .00932811  00000-0  32139-1 0  9999,2 50803  53.2119  55.5144 0001154  77.1886 209.1855 15.27005349162837
2024-12-08 14:00:01,50803,15.27140793,0.000123,53.212,55.13,79.8812,304.872,0.00965351,0.033033,1 50803U 22001A   24343.58334491  .00965351  00000-0  33033-1 0  9996,2 50803  53.2120  55.1300 0001230  79.8812 304.8720 15.27140793  5756
2024-12-08 22:00:00,50803,15.27757723,0.0001102,53.2118,53.5886,88.3059,330.3913,0.00914646,0.030852,1 50803U 22001A   24343.91667824  .00914646  00000-0  30852-1 0  9999,2 50803  53.2118  53.5886 0001102  88.3059 330.3913 15.27757723  5801
2024-12-09 14:00:01,50803,15.28921136,0.0001042,53.2118,50.5061,78.9443,49.8079,0.00983556,0.031836,1 50803U 22001A   24344.58334491  .00983556  00000-0  31836-1 0  9993,2 50803  53.2118  50.5061 0001042  78.9443  49.8079 15.28921136  5793
2024-12-09 22:00:00,50803,15.29543076,0.0001066,53.2116,48.9605,86.5871,78.2554,0.00932206,0.029735,1 50803U 22001A   24344.91667824  .00932206  00000-0  29735-1 0  9990,2 50803  53.2116  48.9605 0001066  86.5871  78.2554 15.29543076163043
2024-12-10 14:00:01,50803,15.30713952,0.0001149,53.2118,45.8698,72.935,166.2743,0.00995899,0.030479,1 50803U 22001A   24345.58334491  .00995899  00000-0  30479-1 0  9999,2 50803  53.2118  45.8698 0001149  72.9350 166.2743 15.30713952  5694
2024-12-10 22:00:00,50803,15.31338047,0.0001105,53.2118,44.3199,81.3022,196.1585,0.00934312,0.028194,1 50803U 22001A   24345.91667824  .00934312  00000-0  28194-1 0  9999,2 50803  53.2118  44.3199 0001105  81.3022 196.1585 15.31338047  5747
2024-12-11 04:00:01,50803,15.31778788,0.0001105,53.2119,43.1573,89.1761,127.5128,0.00973907,0.028893,1 50803U 22001A   24346.16668981  .00973907  00000-0  28893-1 0  9991,2 50803  53.2119  43.1573 0001105  89.1761 127.5128 15.31778788163237
2024-12-11 14:00:01,50803,15.32508103,0.0001248,53.212,41.2207,76.5769,279.5674,0.01004229,0.02905,1 50803U 22001A   24346.58334491  .01004229  00000-0  29050-1 0  9992,2 50803  53.2120  41.2207 0001248  76.5769 279.5674 15.32508103  5847
2024-12-11 22:00:00,50803,15.3313397,0.0001156,53.2121,39.6664,87.3919,309.1635,0.00937513,0.026744,1 50803U 22001A   24346.91667824  .00937513  00000-0  26744-1 0  9995,2 50803  53.2121  39.6664 0001156  87.3919 309.1635 15.33133970163356
2024-12-12 14:00:01,50803,15.34303068,0.000092,53.2123,36.5589,69.1737,50.3847,0.01012544,0.027666,1 50803U 22001A   24347.58334491  .01012544  00000-0  27666-1 0  9993,2 50803  53.2123  36.5589 0000920  69.1737  50.3847 15.34303068  5807
2024-12-12 22:00:00,50803,15.34908168,0.0000731,53.2126,35.0004,77.4593,84.6762,0.01030754,0.027587,1 50803U 22001A   24347.91667824  .01030754  00000-0  27587-1 0  9994,2 50803  53.2126  35.0004 0000731  77.4593  84.6762 15.34908168  5705
2024-12-13 04:00:01,50803,15.35390622,0.0000902,53.2128,33.8315,83.2636,21.34,0.01051568,0.027669,1 50803U 22001A   24348.16668981  .01051568  00000-0  27669-1 0  9994,2 50803  53.2128  33.8315 0000902  83.2636  21.3400 15.35390622163546
2024-12-13 14:00:01,50803,15.36180714,0.0001185,53.2128,31.8842,65.3022,184.2226,0.01105809,0.028246,1 50803U 22001A   24348.58334491  .01105809  00000-0  28246-1 0  9996,2 50803  53.2128  31.8842 0001185  65.3022 184.2226 15.36180714  5802
2024-12-13 20:00:01,50803,15.36712897,0.0001025,53.2129,30.7119,71.4248,121.665,0.00991772,0.025143,1 50803U 22001A   24348.83334491  .00991772  00000-0  25143-1 0  9998,2 50803  53.2129  30.7119 0001025  71.4248 121.6650 15.36712897163645
2024-12-14 14:00:01,50803,15.38140919,0.0001319,53.213,27.1956,66.804,319.657,0.01091172,0.026203,1 50803U 22001A   24349.58334491  .01091172  00000-0  26203-1 0  9995,2 50803  53.2130  27.1956 0001319  66.8040 319.6570 15.38140919163765
2024-12-14 22:00:00,50803,15.38791474,0.0001047,53.2131,25.6277,75.1588,358.5215,0.01070434,0.025211,1 50803U 22001A   24349.91667824  .01070434  00000-0  25211-1 0  9997,2 50803  53.2131  25.6277 0001047  75.1588 358.5215 15.38791474  5843
2024-12-15 04:00:00,50803,15.39306217,0.0001375,53.2132,24.4524,76.4734,303.1104,0.01034811,0.024039,1 50803U 22001A   24350.16667824  .01034811  00000-0  24039-1 0  9992,2 50803  53.2132  24.4524 0001375  76.4734 303.1104 15.39306217163854
2024-12-15 14:00:01,50803,15.40101184,0.0001181,53.2127,22.4929,58.0367,112.4009,0.01071229,0.024173,1 50803U 22001A   24350.58334491  .01071229  00000-0  24173-1 0  9992,2 50803  53.2127  22.4929 0001181  58.0367 112.4009 15.40101184  5687
